<?xml version="1.0" encoding="UTF-8"?>
<ndm xmlns:xsi="http://www.w3.org/2001/XMLSchema-instance" xsi:noNamespaceSchemaLocation="https://sanaregistry.org/r/ndmxml_unqualified/ndmxml-2.0.0-master-2.0.xsd">
<omm id="CCSDS_OMM_VERS" version="2.0">
<header><CREATION_DATE/><ORIGINATOR/></header><body><segment><metadata><OBJECT_NAME>KUIPER-00133</OBJECT_NAME><OBJECT_ID>2025-217C</OBJECT_ID><CENTER_NAME>EARTH</CENTER_NAME><REF_FRAME>TEME</REF_FRAME><TIME_SYSTEM>UTC</TIME_SYSTEM><MEAN_ELEMENT_THEORY>SGP4</MEAN_ELEMENT_THEORY></metadata><data><meanElements><EPOCH>2025-12-02T12:00:05.998752</EPOCH><MEAN_MOTION>14.82529426</MEAN_MOTION><ECCENTRICITY>.001088</ECCENTRICITY><INCLINATION>51.9435</INCLINATION><RA_OF_ASC_NODE>122.8533</RA_OF_ASC_NODE><ARG_OF_PERICENTER>1.4503</ARG_OF_PERICENTER><MEAN_ANOMALY>193.9555</MEAN_ANOMALY></meanElements><tleParameters><EPHEMERIS_TYPE>0</EPHEMERIS_TYPE><CLASSIFICATION_TYPE>U</CLASSIFICATION_TYPE><NORAD_CAT_ID>65764</NORAD_CAT_ID><ELEMENT_SET_NO>999</ELEMENT_SET_NO><REV_AT_EPOCH>546</REV_AT_EPOCH><BSTAR>-.11993E+0</BSTAR><MEAN_MOTION_DOT>-.909562E-2</MEAN_MOTION_DOT><MEAN_MOTION_DDOT>0</MEAN_MOTION_DDOT></tleParameters></data></segment></body></omm>
<omm id="CCSDS_OMM_VERS" version="2.0">
<header><CREATION_DATE/><ORIGINATOR/></header><body><segment><metadata><OBJECT_NAME>KUIPER-00139</OBJECT_NAME><OBJECT_ID>2025-217D</OBJECT_ID><CENTER_NAME>EARTH</CENTER_NAME><REF_FRAME>TEME</REF_FRAME><TIME_SYSTEM>UTC</TIME_SYSTEM><MEAN_ELEMENT_THEORY>SGP4</MEAN_ELEMENT_THEORY></metadata><data><meanElements><EPOCH>2025-12-02T12:00:05.998752</EPOCH><MEAN_MOTION>15.02608549</MEAN_MOTION><ECCENTRICITY>.0009323</ECCENTRICITY><INCLINATION>51.8827</INCLINATION><RA_OF_ASC_NODE>118.7828</RA_OF_ASC_NODE><ARG_OF_PERICENTER>339.7962</ARG_OF_PERICENTER><MEAN_ANOMALY>39.1091</MEAN_ANOMALY></meanElements><tleParameters><EPHEMERIS_TYPE>0</EPHEMERIS_TYPE><CLASSIFICATION_TYPE>U</CLASSIFICATION_TYPE><NORAD_CAT_ID>65765</NORAD_CAT_ID><ELEMENT_SET_NO>999</ELEMENT_SET_NO><REV_AT_EPOCH>509</REV_AT_EPOCH><BSTAR>-.669E-1</BSTAR><MEAN_MOTION_DOT>-.839716E-2</MEAN_MOTION_DOT><MEAN_MOTION_DDOT>0</MEAN_MOTION_DDOT></tleParameters></data></segment></body></omm>
<omm id="CCSDS_OMM_VERS" version="2.0">
<header><CREATION_DATE/><ORIGINATOR/></header><body><segment><metadata><OBJECT_NAME>KUIPER-00142</OBJECT_NAME><OBJECT_ID>2025-217E</OBJECT_ID><CENTER_NAME>EARTH</CENTER_NAME><REF_FRAME>TEME</REF_FRAME><TIME_SYSTEM>UTC</TIME_SYSTEM><MEAN_ELEMENT_THEORY>SGP4</MEAN_ELEMENT_THEORY></metadata><data><meanElements><EPOCH>2025-12-01T16:13:57.701856</EPOCH><MEAN_MOTION>15.37523242</MEAN_MOTION><ECCENTRICITY>.00028905</ECCENTRICITY><INCLINATION>51.8667</INCLINATION><RA_OF_ASC_NODE>117.8321</RA_OF_ASC_NODE><ARG_OF_PERICENTER>319.2475</ARG_OF_PERICENTER><MEAN_ANOMALY>40.8295</MEAN_ANOMALY></meanElements><tleParameters><EPHEMERIS_TYPE>0</EPHEMERIS_TYPE><CLASSIFICATION_TYPE>U</CLASSIFICATION_TYPE><NORAD_CAT_ID>65766</NORAD_CAT_ID><ELEMENT_SET_NO>999</ELEMENT_SET_NO><REV_AT_EPOCH>1034</REV_AT_EPOCH><BSTAR>.10083881E-2</BSTAR><MEAN_MOTION_DOT>.37499E-3</MEAN_MOTION_DOT><MEAN_MOTION_DDOT>0</MEAN_MOTION_DDOT></tleParameters></data></segment></body></omm>
<omm id="CCSDS_OMM_VERS" version="2.0">
<header><CREATION_DATE/><ORIGINATOR/></header><body><segment><metadata><OBJECT_NAME>KUIPER-00145</OBJECT_NAME><OBJECT_ID>2025-217F</OBJECT_ID><CENTER_NAME>EARTH</CENTER_NAME><REF_FRAME>TEME</REF_FRAME><TIME_SYSTEM>UTC</TIME_SYSTEM><MEAN_ELEMENT_THEORY>SGP4</MEAN_ELEMENT_THEORY></metadata><data><meanElements><EPOCH>2025-12-02T12:00:05.998752</EPOCH><MEAN_MOTION>15.24874924</MEAN_MOTION><ECCENTRICITY>.0006874</ECCENTRICITY><INCLINATION>51.8773</INCLINATION><RA_OF_ASC_NODE>114.4711</RA_OF_ASC_NODE><ARG_OF_PERICENTER>312.5000</ARG_OF_PERICENTER><MEAN_ANOMALY>325.5340</MEAN_ANOMALY></meanElements><tleParameters><EPHEMERIS_TYPE>0</EPHEMERIS_TYPE><CLASSIFICATION_TYPE>U</CLASSIFICATION_TYPE><NORAD_CAT_ID>65767</NORAD_CAT_ID><ELEMENT_SET_NO>999</ELEMENT_SET_NO><REV_AT_EPOCH>451</REV_AT_EPOCH><BSTAR>-.1376E-1</BSTAR><MEAN_MOTION_DOT>-.33237E-2</MEAN_MOTION_DOT><MEAN_MOTION_DDOT>0</MEAN_MOTION_DDOT></tleParameters></data></segment></body></omm>
<omm id="CCSDS_OMM_VERS" version="2.0">
<header><CREATION_DATE/><ORIGINATOR/></header><body><segment><metadata><OBJECT_NAME>KUIPER-00147</OBJECT_NAME><OBJECT_ID>2025-217G</OBJECT_ID><CENTER_NAME>EARTH</CENTER_NAME><REF_FRAME>TEME</REF_FRAME><TIME_SYSTEM>UTC</TIME_SYSTEM><MEAN_ELEMENT_THEORY>SGP4</MEAN_ELEMENT_THEORY></metadata><data><meanElements><EPOCH>2025-12-02T12:00:05.998752</EPOCH><MEAN_MOTION>15.16164196</MEAN_MOTION><ECCENTRICITY>.0009713</ECCENTRICITY><INCLINATION>51.8766</INCLINATION><RA_OF_ASC_NODE>115.5745</RA_OF_ASC_NODE><ARG_OF_PERICENTER>337.6173</ARG_OF_PERICENTER><MEAN_ANOMALY>92.9746</MEAN_ANOMALY></meanElements><tleParameters><EPHEMERIS_TYPE>0</EPHEMERIS_TYPE><CLASSIFICATION_TYPE>U</CLASSIFICATION_TYPE><NORAD_CAT_ID>65768</NORAD_CAT_ID><ELEMENT_SET_NO>999</ELEMENT_SET_NO><REV_AT_EPOCH>437</REV_AT_EPOCH><BSTAR>-.17548E-3</BSTAR><MEAN_MOTION_DOT>-.3747E-4</MEAN_MOTION_DOT><MEAN_MOTION_DDOT>0</MEAN_MOTION_DDOT></tleParameters></data></segment></body></omm>
<omm id="CCSDS_OMM_VERS" version="2.0">
<header><CREATION_DATE/><ORIGINATOR/></header><body><segment><metadata><OBJECT_NAME>KUIPER-00148</OBJECT_NAME><OBJECT_ID>2025-217H</OBJECT_ID><CENTER_NAME>EARTH</CENTER_NAME><REF_FRAME>TEME</REF_FRAME><TIME_SYSTEM>UTC</TIME_SYSTEM><MEAN_ELEMENT_THEORY>SGP4</MEAN_ELEMENT_THEORY></metadata><data><meanElements><EPOCH>2025-12-02T12:00:05.998752</EPOCH><MEAN_MOTION>15.20911004</MEAN_MOTION><ECCENTRICITY>.0007738</ECCENTRICITY><INCLINATION>51.8684</INCLINATION><RA_OF_ASC_NODE>115.6329</RA_OF_ASC_NODE><ARG_OF_PERICENTER>3.6531</ARG_OF_PERICENTER><MEAN_ANOMALY>84.2968</MEAN_ANOMALY></meanElements><tleParameters><EPHEMERIS_TYPE>0</EPHEMERIS_TYPE><CLASSIFICATION_TYPE>U</CLASSIFICATION_TYPE><NORAD_CAT_ID>65769</NORAD_CAT_ID><ELEMENT_SET_NO>999</ELEMENT_SET_NO><REV_AT_EPOCH>290</REV_AT_EPOCH><BSTAR>-.1275E-1</BSTAR><MEAN_MOTION_DOT>-.275921E-2</MEAN_MOTION_DOT><MEAN_MOTION_DDOT>0</MEAN_MOTION_DDOT></tleParameters></data></segment></body></omm>
<omm id="CCSDS_OMM_VERS" version="2.0">
<header><CREATION_DATE/><ORIGINATOR/></header><body><segment><metadata><OBJECT_NAME>KUIPER-00150</OBJECT_NAME><OBJECT_ID>2025-217J</OBJECT_ID><CENTER_NAME>EARTH</CENTER_NAME><REF_FRAME>TEME</REF_FRAME><TIME_SYSTEM>UTC</TIME_SYSTEM><MEAN_ELEMENT_THEORY>SGP4</MEAN_ELEMENT_THEORY></metadata><data><meanElements><EPOCH>2025-12-02T12:00:05.998752</EPOCH><MEAN_MOTION>14.89744906</MEAN_MOTION><ECCENTRICITY>.0008777</ECCENTRICITY><INCLINATION>51.8904</INCLINATION><RA_OF_ASC_NODE>120.6166</RA_OF_ASC_NODE><ARG_OF_PERICENTER>351.2319</ARG_OF_PERICENTER><MEAN_ANOMALY>70.8215</MEAN_ANOMALY></meanElements><tleParameters><EPHEMERIS_TYPE>0</EPHEMERIS_TYPE><CLASSIFICATION_TYPE>U</CLASSIFICATION_TYPE><NORAD_CAT_ID>65770</NORAD_CAT_ID><ELEMENT_SET_NO>999</ELEMENT_SET_NO><REV_AT_EPOCH>489</REV_AT_EPOCH><BSTAR>-.14166E+0</BSTAR><MEAN_MOTION_DOT>-.126658E-1</MEAN_MOTION_DOT><MEAN_MOTION_DDOT>0</MEAN_MOTION_DDOT></tleParameters></data></segment></body></omm>
<omm id="CCSDS_OMM_VERS" version="2.0">
<header><CREATION_DATE/><ORIGINATOR/></header><body><segment><metadata><OBJECT_NAME>KUIPER-00151</OBJECT_NAME><OBJECT_ID>2025-217K</OBJECT_ID><CENTER_NAME>EARTH</CENTER_NAME><REF_FRAME>TEME</REF_FRAME><TIME_SYSTEM>UTC</TIME_SYSTEM><MEAN_ELEMENT_THEORY>SGP4</MEAN_ELEMENT_THEORY></metadata><data><meanElements><EPOCH>2025-12-02T12:00:05.998752</EPOCH><MEAN_MOTION>15.14811646</MEAN_MOTION><ECCENTRICITY>.0002124</ECCENTRICITY><INCLINATION>51.8866</INCLINATION><RA_OF_ASC_NODE>116.0840</RA_OF_ASC_NODE><ARG_OF_PERICENTER>315.0558</ARG_OF_PERICENTER><MEAN_ANOMALY>301.7336</MEAN_ANOMALY></meanElements><tleParameters><EPHEMERIS_TYPE>0</EPHEMERIS_TYPE><CLASSIFICATION_TYPE>U</CLASSIFICATION_TYPE><NORAD_CAT_ID>65771</NORAD_CAT_ID><ELEMENT_SET_NO>999</ELEMENT_SET_NO><REV_AT_EPOCH>526</REV_AT_EPOCH><BSTAR>-.15504E-1</BSTAR><MEAN_MOTION_DOT>-.28084E-2</MEAN_MOTION_DOT><MEAN_MOTION_DDOT>0</MEAN_MOTION_DDOT></tleParameters></data></segment></body></omm>

</ndm>
