KUIPER-00133            
1 65764U 25217C   25336.50006943 -.00909562  00000+0 -11993+0 0  9995
2 65764  51.9435 122.8533 0010880   1.4503 193.9555 14.82529426  5466
KUIPER-00139            
1 65765U 25217D   25336.50006943 -.00839716  00000+0 -66900-1 0  9999
2 65765  51.8827 118.7828 0009323 339.7962  39.1091 15.02608549  5090
KUIPER-00142            
1 65766U 25217E   25335.67636229  .00037499  00000+0  10084-2 0  9992
2 65766  51.8667 117.8321 0002890 319.2475  40.8295 15.37523242 10348
KUIPER-00145            
1 65767U 25217F   25336.50006943 -.00332370  00000+0 -13760-1 0  9991
2 65767  51.8773 114.4711 0006874 312.5000 325.5340 15.24874924  4517
KUIPER-00147            
1 65768U 25217G   25336.50006943 -.00003747  00000+0 -17548-3 0  9995
2 65768  51.8766 115.5745 0009713 337.6173  92.9746 15.16164196  4376
KUIPER-00148            
1 65769U 25217H   25336.50006943 -.00275921  00000+0 -12750-1 0  9999
2 65769  51.8684 115.6329 0007738   3.6531  84.2968 15.20911004  2908
KUIPER-00150            
1 65770U 25217J   25336.50006943 -.01266580  00000+0 -14166+0 0  9994
2 65770  51.8904 120.6166 0008777 351.2319  70.8215 14.89744906  4895
KUIPER-00151            
1 65771U 25217K   25336.50006943 -.00280840  00000+0 -15504-1 0  9998
2 65771  51.8866 116.0840 0002124 315.0558 301.7336 15.14811646  5261
